0 SL-3 R/B
1 11166U 78121B   13281.86193528  .00000036  00000-0  11716-4 0  5750
2 11166 081.2398 062.3800 0067254 138.4489 331.5239 14.13516271793587
0 SL-3 R/B
1 11166U 78121B   13282.99851429  .00000023  00000-0  48643-5 0  5763
2 11166 081.2400 061.2667 0067299 135.2456 355.1540 14.13516830793744
0 SL-3 R/B
1 11166U 78121B   13285.83438455  .00000018  00000-0  21559-5 0  5782
2 11166 081.2407 058.4887 0067435 127.2796 025.8283 14.13516635794146
0 SL-3 R/B
1 11166U 78121B   13286.96437296  .00000066  00000-0  27093-4 0  5791
2 11166 081.2409 057.3818 0067483 124.1128 015.9075 14.13516403794308
0 SL-3 R/B
1 11166U 78121B   13288.50789648  .00000178  00000-0  85554-4 0  5806
2 11166 081.2413 055.8700 0067565 119.7826 310.3139 14.13516217794522
0 SL-3 R/B
1 11166U 78121B   13289.86091134  .00000215  00000-0  10465-3 0  5813
2 11166 081.2415 054.5449 0067632 115.9877 355.2913 14.13515967794719
0 SL-3 R/B
1 11166U 78121B   13291.48076966  .00000246  00000-0  12103-3 0  5826
2 11166 081.2416 052.9585 0067688 111.4396 318.1371 14.13516269794948
0 SL-3 R/B
1 11166U 78121B   13292.84319229  .00000254  00000-0  12498-3 0  5836
2 11166 081.2418 051.6244 0067717 107.6088 050.9954 14.13516962795136
0 SL-3 R/B
1 11166U 78121B   13293.90047214  .00000227  00000-0  11108-3 0  5844
2 11166 081.2419 050.5891 0067701 104.6309 031.1023 14.13517888795281
0 SL-3 R/B
1 11166U 78121B   13295.44439034  .00000160  00000-0  76436-4 0  5853
2 11166 081.2421 049.0772 0067683 100.2822 327.5365 14.13519158795504
